satname,norad_id,inclination_deg,eccentricity,mean_motion_rev_per_day,perigee_km,apogee_km,l1,l2
STARLINK-1460,45676,53.0538,0.0001209,15.06398958,546.3774764932841,548.0520265468022,1 45676U 20035V   25268.23207501  .00002575  00000+0  19171-3 0  9991,2 45676  53.0538  89.3855 0001209  89.4299 270.6829 15.06398958293759
STARLINK-1392,45677,53.0532,0.0001192,15.06398707,546.3900187794061,548.0410228203655,1 45677U 20035W   25267.77870514  .00000040  00000+0  21571-4 0  9993,2 45677  53.0532  91.4211 0001192  86.1852 273.9274 15.06398707293723
STARLINK-1394,45679,53.0531,0.0001126,15.06401293,546.4278012809318,547.9873888837446,1 45679U 20035Y   25267.77593787 -.00000247  00000+0  23286-5 0  9995,2 45679  53.0531  81.4304 0001126  81.6236 278.4881 15.06401293293863
STARLINK-1402,45685,53.0543,0.0001558,15.06406571,546.1124526752255,548.2703850105372,1 45685U 20035AE  25267.47499689  .00000885  00000+0  78315-4 0  9994,2 45685  53.0543  77.2055 0001558  89.0646 271.0522 15.06406571293905
STARLINK-1404,45686,53.055,0.0001448,15.06398513,546.2133242517511,548.2189065139655,1 45686U 20035AF  25268.19982735  .00000488  00000+0  51663-4 0  9990,2 45686  53.0550  79.5342 0001448  89.8011 270.3144 15.06398513293931
STARLINK-1413,45689,53.0527,0.0001325,15.06409925,546.26353475628,548.0987440632234,1 45689U 20035AJ  25267.68746892  .00005581  00000+0  39316-3 0  9997,2 45689  53.0527  81.8303 0001325  78.0435 282.0702 15.06409925293766
STARLINK-1417,45693,53.0542,0.0001425,15.06402735,546.2163145948534,548.190036544891,1 45693U 20035AN  25268.21456635  .00002177  00000+0  16500-3 0  9993,2 45693  53.0542  79.4677 0001425  87.1748 272.9404 15.06402735293921
STARLINK-1420,45695,53.0547,0.0001009,15.06405786,546.4950588581596,547.8925906185914,1 45695U 20035AQ  25268.14910759  .00002041  00000+0  15587-3 0  9993,2 45695  53.0547  59.7487 0001009  93.7798 266.3306 15.06405786294203
STARLINK-1422,45696,53.0537,0.0001209,15.06399221,546.3766705328035,548.0512203914168,1 45696U 20035AR  25267.76120538  .00000483  00000+0  51294-4 0  9993,2 45696  53.0537  81.5029 0001209  89.3886 270.7241 15.06399221293852
STARLINK-1351,45697,53.0551,0.0001411,15.06364345,546.3436554325926,548.2980196343451,1 45697U 20035AS  25268.13533647  .00000794  00000+0  72247-4 0  9991,2 45697  53.0551  59.8196 0001411  92.8548 267.2603 15.06364345294203
STARLINK-1398,45699,53.0531,0.0003922,15.43722912,432.4609646347444,437.8052937240727,1 45699U 20035AU  25266.64720583  .00048049  00000+0  10499-2 0  9998,2 45699  53.0531  36.9460 0003922 172.3023 187.8043 15.43722912294398
STARLINK-1400,45700,53.0544,0.000104,15.064584,546.3123584957839,547.7527937676205,1 45700U 20035AV  25267.57871296  .00015987  00000+0  10880-2 0  9991,2 45700  53.0544  62.3204 0001040  85.3526 274.7582 15.06458400294115
STARLINK-1403,45701,53.0556,0.0001335,15.06397616,546.2943295566365,548.1433995724747,1 45701U 20035AW  25268.13899608  .00000425  00000+0  47397-4 0  9998,2 45701  53.0556  59.8036 0001335  94.1677 265.9465 15.06397616294196
STARLINK-1407,45703,53.0433,0.0008523,15.35506516,453.58876982583024,465.24406337977234,1 45703U 20035AY  25268.33339120  .00145013  00000+0  40708-2 0  9990,2 45703  53.0433  25.6170 0008523 261.2379 339.2620 15.35506516  5892
STARLINK-1411,45706,53.0552,3.92e-05,15.29758909,476.26370104511807,476.8011071263991,1 45706U 20035BB  25268.33339120  .00176991  00000+0  59266-2 0  9991,2 45706  53.0552  52.0505 0000392  57.2993 104.7884 15.29758909  5866
STARLINK-1423,45710,53.055,0.0001366,15.06397238,546.274019314058,548.1660268527648,1 45710U 20035BF  25267.43500141  .00006352  00000+0  44496-3 0  9992,2 45710  53.0550  62.9665 0001366  85.4755 274.6390 15.06397238294090
STARLINK-1433,45711,53.0542,0.00014,15.06392159,546.2660374156658,548.2051417407474,1 45711U 20035BG  25267.68194611 -.00003126  00000+0 -19110-3 0  9994,2 45711  53.0542  61.8552 0001400  79.8860 280.2287 15.06392159294127
STARLINK-1434,45712,53.0524,0.0002672,15.11796587,528.8749696986724,532.5670634227217,1 45712U 20035BH  25268.15398459  .00064344  00000+0  37093-2 0  9990,2 45712  53.0524  57.7669 0002672 119.6618 240.4640 15.11796587294239
STARLINK-1465,45731,53.0534,0.0001863,15.06402648,545.9132512871638,548.4936331359313,1 45731U 20038B   25268.17955212  .00000587  00000+0  58288-4 0  9992,2 45731  53.0534 259.6203 0001863  91.6539 268.4663 15.06402648291249
STARLINK-1471,45735,53.0514,0.0003426,15.38686563,447.6529415497416,452.3315757177579,1 45735U 20038F   25268.27419367  .00071839  00000+0  18442-2 0  9997,2 45735  53.0514 208.0580 0003426  95.9566 264.1827 15.38686563291982
STARLINK-1474,45738,53.0394,0.0006454,15.60859218,380.80886675954844,389.53894847910396,1 45738U 20038J   25267.97038978  .00073502  00000+0  86152-3 0  9994,2 45738  53.0394 173.1783 0006454 128.6535 231.5056 15.60859218292440
STARLINK-1475,45739,53.0523,0.0008175,15.6057117,380.4764365340852,391.5358105410687,1 45739U 20038K   25268.33339120  .00124446  00000+0  14606-2 0  9997,2 45739  53.0523 139.1161 0008175 101.2386 241.8049 15.60571170  5839
STARLINK-1480,45741,53.0542,0.0001546,15.06410812,546.1077671496141,548.2490746777603,1 45741U 20038M   25267.23225639  .00000513  00000+0  53348-4 0  9993,2 45741  53.0542 263.8798 0001546  98.3369 261.7796 15.06410812291119
STARLINK-1500,45744,53.0368,0.0005574,15.25484524,485.5029599087593,493.15881310863824,1 45744U 20038Q   25268.22861639  .00030640  00000+0  12024-2 0  9990,2 45744  53.0368 243.3837 0005574  80.9734 279.1893 15.25484524291486
STARLINK-1504,45746,53.0306,0.0006559,15.35400113,455.2473487671714,464.2172657244164,1 45746U 20038S   25268.10837725  .00043225  00000+0  12422-2 0  9993,2 45746  53.0306 211.4587 0006559  54.3266 305.8345 15.35400113291917
STARLINK-1506,45747,53.0549,0.0004811,15.19798995,503.13539906180085,509.75974633765327,1 45747U 20038T   25268.24031109  .00011607  00000+0  54925-3 0  9995,2 45747  53.0549 244.2617 0004811 102.0485 258.1049 15.19798995291470
STARLINK-1464,45751,53.0536,0.0001577,15.06390239,546.1493419736007,548.3336063443503,1 45751U 20038X   25268.22931016 -.00002421  00000+0 -14371-3 0  9991,2 45751  53.0536 239.3990 0001577  90.6978 269.4192 15.06390239291542
STARLINK-1477,45754,53.0533,0.0001438,15.06389882,546.2466987426651,548.2384379065152,1 45754U 20038AA  25268.24405405 -.00000038  00000+0  16378-4 0  9995,2 45754  53.0533 239.3312 0001438  90.5553 269.5600 15.06389882291541
